CCSDS_OMM_VERS = 2.0
CREATION_DATE  = 
ORIGINATOR     = 

OBJECT_NAME    = STARLINK-36624
OBJECT_ID      = 2026-020V
CENTER_NAME    = EARTH
REF_FRAME      = TEME
TIME_SYSTEM    = UTC
MEAN_ELEMENT_THEORY = SGP/SGP4

EPOCH          = 2026-02-22T00:00:02.999808
MEAN_MOTION    = 15.76314803
ECCENTRICITY   = .00017828
INCLINATION    = 42.9996
RA_OF_ASC_NODE = 237.0806
ARG_OF_PERICENTER = 278.4829
MEAN_ANOMALY   = 125.1910

EPHEMERIS_TYPE = 0
CLASSIFICATION_TYPE = U
NORAD_CAT_ID   = 67636
ELEMENT_SET_NO = 999
REV_AT_EPOCH   = 486
BSTAR          = .6214803E-3
MEAN_MOTION_DOT = .101705E-2
MEAN_MOTION_DDOT = 0

CCSDS_OMM_VERS = 2.0
CREATION_DATE  = 
ORIGINATOR     = 

OBJECT_NAME    = STARLINK-36610
OBJECT_ID      = 2026-020W
CENTER_NAME    = EARTH
REF_FRAME      = TEME
TIME_SYSTEM    = UTC
MEAN_ELEMENT_THEORY = SGP/SGP4

EPOCH          = 2026-02-22T20:06:36.493632
MEAN_MOTION    = 15.76427588
ECCENTRICITY   = .00021288
INCLINATION    = 42.9982
RA_OF_ASC_NODE = 232.2960
ARG_OF_PERICENTER = 273.1707
MEAN_ANOMALY   = 86.8919

EPHEMERIS_TYPE = 0
CLASSIFICATION_TYPE = U
NORAD_CAT_ID   = 67637
ELEMENT_SET_NO = 999
REV_AT_EPOCH   = 374
BSTAR          = .13440594E-2
MEAN_MOTION_DOT = .224898E-2
MEAN_MOTION_DDOT = 0

CCSDS_OMM_VERS = 2.0
CREATION_DATE  = 
ORIGINATOR     = 

OBJECT_NAME    = STARLINK-36599
OBJECT_ID      = 2026-020X
CENTER_NAME    = EARTH
REF_FRAME      = TEME
TIME_SYSTEM    = UTC
MEAN_ELEMENT_THEORY = SGP/SGP4

EPOCH          = 2026-02-21T14:16:53.043168
MEAN_MOTION    = 15.82028119
ECCENTRICITY   = .0003095
INCLINATION    = 42.9983
RA_OF_ASC_NODE = 239.2951
ARG_OF_PERICENTER = 287.9163
MEAN_ANOMALY   = 72.1371

EPHEMERIS_TYPE = 0
CLASSIFICATION_TYPE = U
NORAD_CAT_ID   = 67638
ELEMENT_SET_NO = 999
REV_AT_EPOCH   = 355
BSTAR          = .17085E-2
MEAN_MOTION_DOT = .375504E-2
MEAN_MOTION_DDOT = 0

CCSDS_OMM_VERS = 2.0
CREATION_DATE  = 
ORIGINATOR     = 

OBJECT_NAME    = STARLINK-36595
OBJECT_ID      = 2026-020Y
CENTER_NAME    = EARTH
REF_FRAME      = TEME
TIME_SYSTEM    = UTC
MEAN_ELEMENT_THEORY = SGP/SGP4

EPOCH          = 2026-02-22T00:00:02.999808
MEAN_MOTION    = 15.76277063
ECCENTRICITY   = .00017674
INCLINATION    = 42.9992
RA_OF_ASC_NODE = 236.9868
ARG_OF_PERICENTER = 266.7354
MEAN_ANOMALY   = 174.2725

EPHEMERIS_TYPE = 0
CLASSIFICATION_TYPE = U
NORAD_CAT_ID   = 67639
ELEMENT_SET_NO = 999
REV_AT_EPOCH   = 486
BSTAR          = .10093005E-2
MEAN_MOTION_DOT = .166476E-2
MEAN_MOTION_DDOT = 0

CCSDS_OMM_VERS = 2.0
CREATION_DATE  = 
ORIGINATOR     = 

OBJECT_NAME    = STARLINK-36570
OBJECT_ID      = 2026-020Z
CENTER_NAME    = EARTH
REF_FRAME      = TEME
TIME_SYSTEM    = UTC
MEAN_ELEMENT_THEORY = SGP/SGP4

EPOCH          = 2026-02-22T21:28:23.001888
MEAN_MOTION    = 15.76495963
ECCENTRICITY   = .0003607
INCLINATION    = 43.0001
RA_OF_ASC_NODE = 231.8587
ARG_OF_PERICENTER = 272.3577
MEAN_ANOMALY   = 87.6880

EPHEMERIS_TYPE = 0
CLASSIFICATION_TYPE = U
NORAD_CAT_ID   = 67640
ELEMENT_SET_NO = 999
REV_AT_EPOCH   = 375
BSTAR          = .16708E-2
MEAN_MOTION_DOT = .282506E-2
MEAN_MOTION_DDOT = 0

CCSDS_OMM_VERS = 2.0
CREATION_DATE  = 
ORIGINATOR     = 

OBJECT_NAME    = STARLINK-36514
OBJECT_ID      = 2026-020AA
CENTER_NAME    = EARTH
REF_FRAME      = TEME
TIME_SYSTEM    = UTC
MEAN_ELEMENT_THEORY = SGP/SGP4

EPOCH          = 2026-02-23T06:00:02.000160
MEAN_MOTION    = 15.76342230
ECCENTRICITY   = .00018219
INCLINATION    = 42.9994
RA_OF_ASC_NODE = 229.1690
ARG_OF_PERICENTER = 268.0386
MEAN_ANOMALY   = 162.2807

EPHEMERIS_TYPE = 0
CLASSIFICATION_TYPE = U
NORAD_CAT_ID   = 67641
ELEMENT_SET_NO = 999
REV_AT_EPOCH   = 506
BSTAR          = .16126295E-3
MEAN_MOTION_DOT = .25825E-3
MEAN_MOTION_DDOT = 0

CCSDS_OMM_VERS = 2.0
CREATION_DATE  = 
ORIGINATOR     = 

OBJECT_NAME    = STARLINK-36556
OBJECT_ID      = 2026-020AB
CENTER_NAME    = EARTH
REF_FRAME      = TEME
TIME_SYSTEM    = UTC
MEAN_ELEMENT_THEORY = SGP/SGP4

EPOCH          = 2026-02-23T04:48:50.261472
MEAN_MOTION    = 15.76468815
ECCENTRICITY   = .00019429
INCLINATION    = 42.9989
RA_OF_ASC_NODE = 229.8429
ARG_OF_PERICENTER = 307.5707
MEAN_ANOMALY   = 52.4986

EPHEMERIS_TYPE = 0
CLASSIFICATION_TYPE = U
NORAD_CAT_ID   = 67642
ELEMENT_SET_NO = 999
REV_AT_EPOCH   = 380
BSTAR          = .19302493E-2
MEAN_MOTION_DOT = .32778E-2
MEAN_MOTION_DDOT = 0

CCSDS_OMM_VERS = 2.0
CREATION_DATE  = 
ORIGINATOR     = 

OBJECT_NAME    = STARLINK-36533
OBJECT_ID      = 2026-020AC
CENTER_NAME    = EARTH
REF_FRAME      = TEME
TIME_SYSTEM    = UTC
MEAN_ELEMENT_THEORY = SGP/SGP4

EPOCH          = 2026-02-22T20:00:17.112096
MEAN_MOTION    = 15.76366936
ECCENTRICITY   = .00011265
INCLINATION    = 42.9984
RA_OF_ASC_NODE = 232.2588
ARG_OF_PERICENTER = 319.7190
MEAN_ANOMALY   = 40.3596

EPHEMERIS_TYPE = 0
CLASSIFICATION_TYPE = U
NORAD_CAT_ID   = 67643
ELEMENT_SET_NO = 999
REV_AT_EPOCH   = 374
BSTAR          = -.49318483E-3
MEAN_MOTION_DOT = -.80041E-3
MEAN_MOTION_DDOT = 0

CCSDS_OMM_VERS = 2.0
CREATION_DATE  = 
ORIGINATOR     = 

OBJECT_NAME    = STARLINK-36623
OBJECT_ID      = 2026-020AD
CENTER_NAME    = EARTH
REF_FRAME      = TEME
TIME_SYSTEM    = UTC
MEAN_ELEMENT_THEORY = SGP/SGP4

EPOCH          = 2026-02-23T04:58:17.631264
MEAN_MOTION    = 15.76481653
ECCENTRICITY   = .00022018
INCLINATION    = 42.9990
RA_OF_ASC_NODE = 229.8992
ARG_OF_PERICENTER = 344.4452
MEAN_ANOMALY   = 15.6350

EPHEMERIS_TYPE = 0
CLASSIFICATION_TYPE = U
NORAD_CAT_ID   = 67644
ELEMENT_SET_NO = 999
REV_AT_EPOCH   = 380
BSTAR          = .24482123E-2
MEAN_MOTION_DOT = .420757E-2
MEAN_MOTION_DDOT = 0

CCSDS_OMM_VERS = 2.0
CREATION_DATE  = 
ORIGINATOR     = 

OBJECT_NAME    = STARLINK-36619
OBJECT_ID      = 2026-020AE
CENTER_NAME    = EARTH
REF_FRAME      = TEME
TIME_SYSTEM    = UTC
MEAN_ELEMENT_THEORY = SGP/SGP4

EPOCH          = 2026-02-23T04:55:08.732352
MEAN_MOTION    = 15.76417332
ECCENTRICITY   = .00011593
INCLINATION    = 42.9964
RA_OF_ASC_NODE = 229.8787
ARG_OF_PERICENTER = 25.1874
MEAN_ANOMALY   = 334.9052

EPHEMERIS_TYPE = 0
CLASSIFICATION_TYPE = U
NORAD_CAT_ID   = 67645
ELEMENT_SET_NO = 999
REV_AT_EPOCH   = 380
BSTAR          = .19909924E-2
MEAN_MOTION_DOT = .337751E-2
MEAN_MOTION_DDOT = 0

CCSDS_OMM_VERS = 2.0
CREATION_DATE  = 
ORIGINATOR     = 

OBJECT_NAME    = ALSAT-3B
OBJECT_ID      = 2026-021A
CENTER_NAME    = EARTH
REF_FRAME      = TEME
TIME_SYSTEM    = UTC
MEAN_ELEMENT_THEORY = SGP/SGP4

EPOCH          = 2026-02-23T06:20:54.409632
MEAN_MOTION    = 15.23714533
ECCENTRICITY   = .00127697
INCLINATION    = 97.4690
RA_OF_ASC_NODE = 128.6641
ARG_OF_PERICENTER = 179.7384
MEAN_ANOMALY   = 180.3862

EPHEMERIS_TYPE = 0
CLASSIFICATION_TYPE = U
NORAD_CAT_ID   = 67646
ELEMENT_SET_NO = 999
REV_AT_EPOCH   = 352
BSTAR          = .35505363E-3
MEAN_MOTION_DOT = .8476E-4
MEAN_MOTION_DDOT = 0

